NORAD_CAT_ID,OBJECT_NAME,OBJECT_TYPE,EPOCH,MEAN_MOTION,ECCENTRICITY,INCLINATION,RA_OF_ASC_NODE,ARG_OF_PERICENTER,MEAN_ANOMALY,BSTAR,MEAN_MOTION_DOT,MEAN_MOTION_DDOT,TLE_LINE0,TLE_LINE1,TLE_LINE2,SEMIMAJOR_AXIS,PERIOD,APOGEE,PERIGEE,DECAYED
55774.0,STARLINK-5812,PAYLOAD,2023-03-19 14:00:01,15.7386389,0.0003453,70.0,110.7269,270.6783,243.4652,-0.0070332,-0.00899063,0.0,0 STARLINK-5812,1 55774U 23028AK  23078.58334491 -.00899063  00000-0 -70332-2 0  9994,2 55774  70.0000 110.7269 0003453 270.6783 243.4652 15.73863890  1301,6726.003,91.495,350.191,345.546,0.0
55774.0,STARLINK-5812,PAYLOAD,2023-03-19 22:00:00,15.73212083,0.0003509,70.0002,109.7845,265.3673,336.4418,-0.0072414,-0.00899937,0.0,0 STARLINK-5812,1 55774U 23028AK  23078.91667824 -.00899937  00000-0 -72414-2 0  9993,2 55774  70.0002 109.7845 0003509 265.3673 336.4418 15.73212083  3208,6727.861,91.532,352.087,347.365,0.0
55774.0,STARLINK-5812,PAYLOAD,2023-03-20 14:00:01,15.71934027,0.0003559,69.9906,107.8947,275.4443,139.3335,-0.0079509,-0.00931929,0.0,0 STARLINK-5812,1 55774U 23028AK  23079.58334491 -.00931929  00000-0 -79509-2 0  9998,2 55774  69.9906 107.8947 0003559 275.4443 139.3335 15.71934027  1306,6731.507,91.607,355.768,350.976,0.0
55774.0,STARLINK-5812,PAYLOAD,2023-03-20 22:00:01,15.71215815,0.0003462,69.9909,106.9551,269.5002,230.6859,-0.0071961,-0.00828486,0.0,0 STARLINK-5812,1 55774U 23028AK  23079.91668981 -.00828486  00000-0 -71961-2 0  9996,2 55774  69.9909 106.9551 0003462 269.5002 230.6859 15.71215815  3369,6733.558,91.649,357.754,353.092,0.0
55774.0,STARLINK-5812,PAYLOAD,2023-03-21 06:00:00,15.70542955,0.00034,69.9917,106.0166,273.4917,311.1721,-0.0068824,-0.00775184,0.0,0 STARLINK-5812,1 55774U 23028AK  23080.25001157 -.00775184  00000-0 -68824-2 0  9991,2 55774  69.9917 106.0166 0003400 273.4917 311.1721 15.70542955  3418,6735.481,91.688,359.636,355.056,0.0
55774.0,STARLINK-5812,PAYLOAD,2023-03-21 14:00:01,15.69906586,0.000349,69.9926,105.0783,277.0545,31.41,0.00020312,0.00024264,0.0,0 STARLINK-5812,1 55774U 23028AK  23080.58335648  .00024264  00000-0  20312-3 0  9997,2 55774  69.9926 105.0783 0003490 277.0545  31.4100 15.69906586  3468,6737.301,91.725,361.518,356.815,0.0
55774.0,STARLINK-5812,PAYLOAD,2023-03-21 22:00:00,15.69888832,0.0003392,69.9947,104.1407,268.496,123.2419,0.00071754,0.00086837,0.0,0 STARLINK-5812,1 55774U 23028AK  23080.91667824  .00086837  00000-0  71754-3 0  9998,2 55774  69.9947 104.1407 0003392 268.4960 123.2419 15.69888832  1307,6737.352,91.726,361.502,356.932,0.0
55774.0,STARLINK-5812,PAYLOAD,2023-03-22 14:00:01,15.69935052,0.0003422,69.9985,102.2657,281.47,276.9373,-0.000235,-0.00028387,0.0,0 STARLINK-5812,1 55774U 23028AK  23081.58334491 -.00028387  00000-0 -23500-3 0  9997,2 55774  69.9985 102.2657 0003422 281.4700 276.9373 15.69935052  3625,6737.22,91.724,361.39,356.779,0.0
55774.0,STARLINK-5812,PAYLOAD,2023-03-22 22:00:00,15.69866288,0.0003407,70.0001,101.3284,273.7582,7.9999,0.00098125,0.00119179,0.0,0 STARLINK-5812,1 55774U 23028AK  23081.91667824  .00119179  00000-0  98125-3 0  9996,2 55774  70.0001 101.3284 0003407 273.7582   7.9999 15.69866288  1301,6737.417,91.728,361.577,356.986,0.0
55774.0,STARLINK-5812,PAYLOAD,2023-03-23 14:00:01,15.69926169,0.0003474,70.0004,99.4538,276.3262,172.152,-8.126e-05,-9.973e-05,0.0,0 STARLINK-5812,1 55774U 23028AK  23082.58335648 -.00009973  00000-0 -81260-4 0  9991,2 55774  70.0004  99.4538 0003474 276.3262 172.1520 15.69926169  3785,6737.245,91.724,361.451,356.77,0.0
55774.0,STARLINK-5812,PAYLOAD,2023-03-24 17:00:11,15.6988665,0.0003329,70.0004,96.2905,263.2104,62.139,0.00026681,0.00031941,0.0,0 STARLINK-5812,1 55774U 23028AK  23083.70846065  .00031941  00000-0  26681-3 0  9999,2 55774  70.0004  96.2905 0003329 263.2104  62.1390 15.69886650  3959,6737.358,91.726,361.466,356.98,0.0
55774.0,STARLINK-5812,PAYLOAD,2023-03-24 22:00:01,15.69850981,0.0003386,70.0006,95.7052,257.7582,164.047,0.0013514,0.00165017,0.0,0 STARLINK-5812,1 55774U 23028AK  23083.91668981  .00165017  00000-0  13514-2 0  9993,2 55774  70.0006  95.7052 0003386 257.7582 164.0470 15.69850981  1305,6737.46,91.728,361.607,357.044,0.0
55774.0,STARLINK-5812,PAYLOAD,2023-03-25 03:51:19,15.69893997,0.0003062,70.0006,95.0198,259.6917,100.3934,-2.0627e-05,-2.689e-05,0.0,0 STARLINK-5812,1 55774U 23028AK  23084.16064165 -.00002689  00000-0 -20627-4 0  9997,2 55774  70.0006  95.0198 0003062 259.6917 100.3934 15.69893997  4027,6737.337,91.726,361.265,357.139,0.0
55774.0,STARLINK-5812,PAYLOAD,2023-03-25 09:58:20,15.69912617,0.000297,70.0007,94.3035,259.5262,100.5599,0.0003127,0.00037535,0.0,0 STARLINK-5812,1 55774U 23028AK  23084.41551457  .00037535  00000-0  31270-3 0  9991,2 55774  70.0007  94.3035 0002970 259.5262 100.5599 15.69912617  4063,6737.284,91.725,361.15,357.148,0.0
55774.0,STARLINK-5812,PAYLOAD,2023-03-25 17:37:05,15.69986937,0.0003271,70.001,93.4071,258.4758,101.607,0.00072708,0.00088366,0.0,0 STARLINK-5812,1 55774U 23028AK  23084.73408924  .00088366  00000-0  72708-3 0  9995,2 55774  70.0010  93.4071 0003271 258.4758 101.6070 15.69986937  4118,6737.071,91.721,361.14,356.733,0.0
55774.0,STARLINK-5812,PAYLOAD,2023-03-26 02:47:35,15.6997752,0.0003348,70.001,92.3321,254.4921,105.5905,0.00045202,0.00054614,0.0,0 STARLINK-5812,1 55774U 23028AK  23085.11637960  .00054614  00000-0  45202-3 0  9990,2 55774  70.0010  92.3321 0003348 254.4921 105.5905 15.69977520  4171,6737.098,91.721,361.219,356.708,0.0
55774.0,STARLINK-5812,PAYLOAD,2023-03-26 10:26:21,15.6990043,0.000291,70.0021,91.4385,244.8599,115.2295,6.7106e-05,7.856e-05,0.0,0 STARLINK-5812,1 55774U 23028AK  23085.43496728  .00007856  00000-0  67106-4 0  9994,2 55774  70.0021  91.4385 0002910 244.8599 115.2295 15.69900430  4223,6737.319,91.726,361.144,357.223,0.0
55774.0,STARLINK-5812,PAYLOAD,2023-03-26 11:58:06,15.69919572,0.0002601,70.0017,91.2595,268.5082,91.5816,-0.00010708,-0.00013063,0.0,0 STARLINK-5812,1 55774U 23028AK  23085.49868561 -.00013063  00000-0 -10708-3 0  9992,2 55774  70.0017  91.2595 0002601 268.5082  91.5816 15.69919572  4240,6737.264,91.724,360.881,357.377,0.0
55774.0,STARLINK-5812,PAYLOAD,2023-03-27 06:00:00,15.69910726,0.0003393,70.0013,89.1452,263.5151,21.5927,8.1587e-05,9.603e-05,0.0,0 STARLINK-5812,1 55774U 23028AK  23086.25001157  .00009603  00000-0  81587-4 0  9994,2 55774  70.0013  89.1452 0003393 263.5151  21.5927 15.69910726  4355,6737.289,91.725,361.44,356.868,0.0
55774.0,STARLINK-5812,PAYLOAD,2023-03-27 14:00:01,15.69924692,0.0003299,70.0011,88.2081,268.819,99.6193,-3.2775e-05,-4.152e-05,0.0,0 STARLINK-5812,1 55774U 23028AK  23086.58334491 -.00004152  00000-0 -32775-4 0  9991,2 55774  70.0011  88.2081 0003299 268.8190  99.6193 15.69924692  1307,6737.249,91.724,361.337,356.892,0.0
55774.0,STARLINK-5812,PAYLOAD,2023-03-27 22:00:00,15.69911564,0.0003306,70.0013,87.2713,264.0476,187.7262,0.00030836,0.00037009,0.0,0 STARLINK-5812,1 55774U 23028AK  23086.91667824  .00037009  00000-0  30836-3 0  9997,2 55774  70.0013  87.2713 0003306 264.0476 187.7262 15.69911564  1304,6737.287,91.725,361.379,356.925,0.0
55774.0,STARLINK-5812,PAYLOAD,2023-03-28 09:50:39,15.69928928,0.0003261,70.0019,85.8842,264.5302,95.5522,0.0001283,0.00015245,0.0,0 STARLINK-5812,1 55774U 23028AK  23087.41018352  .00015245  00000-0  12830-3 0  9991,2 55774  70.0019  85.8842 0003261 264.5302  95.5522 15.69928928  4535,6737.237,91.724,361.299,356.905,0.0
55774.0,STARLINK-5812,PAYLOAD,2023-03-28 11:22:24,15.69933648,0.000316,70.0018,85.705,264.3091,95.7745,7.8299e-05,9.216e-05,0.0,0 STARLINK-5812,1 55774U 23028AK  23087.47389975  .00009216  00000-0  78299-4 0  9992,2 55774  70.0018  85.7050 0003160 264.3091  95.7745 15.69933648  4551,6737.224,91.724,361.218,356.96,0.0
55774.0,STARLINK-5812,PAYLOAD,2023-03-28 17:29:25,15.69928371,0.0003077,70.002,84.9884,266.9826,93.1018,5.7972e-05,6.765e-05,0.0,0 STARLINK-5812,1 55774U 23028AK  23087.72876746  .00006765  00000-0  57972-4 0  9998,2 55774  70.0020  84.9884 0003077 266.9826  93.1018 15.69928371  4597,6737.239,91.724,361.177,357.031,0.0
55774.0,STARLINK-5812,PAYLOAD,2023-03-29 01:08:10,15.69930787,0.0003381,70.0016,84.0926,262.8489,97.2322,4.7197e-05,5.468e-05,0.0,0 STARLINK-5812,1 55774U 23028AK  23088.04734913  .00005468  00000-0  47197-4 0  9990,2 55774  70.0016  84.0926 0003381 262.8489  97.2322 15.69930787  4630,6737.232,91.724,361.375,356.819,0.0
55774.0,STARLINK-5812,PAYLOAD,2023-03-29 11:50:26,15.69930303,0.0003379,70.0005,82.8404,267.7891,92.2918,5.1046e-05,5.931e-05,0.0,0 STARLINK-5812,1 55774U 23028AK  23088.49336701  .00005931  00000-0  51046-4 0  9995,2 55774  70.0005  82.8404 0003379 267.7891  92.2918 15.69930303  4712,6737.233,91.724,361.375,356.822,0.0
55774.0,STARLINK-5812,PAYLOAD,2023-03-30 01:36:13,15.69925825,0.0003539,70.0027,81.2298,271.543,88.536,3.6575e-05,4.188e-05,0.0,0 STARLINK-5812,1 55774U 23028AK  23089.06681975  .00004188  00000-0  36575-4 0  9998,2 55774  70.0027  81.2298 0003539 271.5430  88.5360 15.69925825  4790,6737.246,91.724,361.496,356.727,0.0
55774.0,STARLINK-5812,PAYLOAD,2023-03-30 10:46:44,15.69925821,0.0003233,70.0006,80.1524,263.6859,96.3968,3.7485e-05,4.297e-05,0.0,0 STARLINK-5812,1 55774U 23028AK  23089.44912049  .00004297  00000-0  37485-4 0  9991,2 55774  70.0006  80.1524 0003233 263.6859  96.3968 15.69925821  4860,6737.246,91.724,361.289,356.933,0.0
55774.0,STARLINK-5812,PAYLOAD,2023-03-31 11:14:46,15.69924116,0.0002668,70.0009,77.2868,278.389,81.7003,5.0347e-05,5.845e-05,0.0,0 STARLINK-5812,1 55774U 23028AK  23090.46859010  .00005845  00000-0  50347-4 0  9995,2 55774  70.0009  77.2868 0002668 278.3890  81.7003 15.69924116  5012,6737.251,91.724,360.914,357.319,0.0
55774.0,STARLINK-5812,PAYLOAD,2023-04-01 02:32:17,15.69919261,0.0003012,70.0013,75.4944,273.4794,86.6057,1.7386e-05,1.878e-05,0.0,0 STARLINK-5812,1 55774U 23028AK  23091.10575941  .00001878  00000-0  17386-4 0  9993,2 55774  70.0013  75.4944 0003012 273.4794  86.6057 15.69919261  5114,6737.265,91.724,361.159,357.101,0.0
